[{"OBJECT_NAME":"ION SCV-007","OBJECT_ID":"2023-001BD","EPOCH":"2026-03-09T17:06:57.398976","MEAN_MOTION":14.77452062,"ECCENTRICITY":0.0011115,"INCLINATION":97.9119,"RA_OF_ASC_NODE":133.6572,"ARG_OF_PERICENTER":300.6234,"MEAN_ANOMALY":59.388,"EPHEMERIS_TYPE":0,"CLASSIFICATION_TYPE":"U","NORAD_CAT_ID":55060,"ELEMENT_SET_NO":999,"REV_AT_EPOCH":17156,"BSTAR":9.8780653e-5,"MEAN_MOTION_DOT":6.53e-6,"MEAN_MOTION_DDOT":0},{"OBJECT_NAME":"COSMOS 2251 DEB","OBJECT_ID":"1993-036AKJ","EPOCH":"2026-02-08T11:39:10.701792","MEAN_MOTION":14.69247187,"ECCENTRICITY":0.00699538,"INCLINATION":74.0147,"RA_OF_ASC_NODE":95.6951,"ARG_OF_PERICENTER":224.5568,"MEAN_ANOMALY":134.9966,"EPHEMERIS_TYPE":0,"CLASSIFICATION_TYPE":"U","NORAD_CAT_ID":35440,"ELEMENT_SET_NO":999,"REV_AT_EPOCH":69613,"BSTAR":0.00049855646,"MEAN_MOTION_DOT":3.018e-5,"MEAN_MOTION_DDOT":0}]
